{"type": "FeatureCollection", "features": [ {"type": "Feature", "properties": {"norad_id": 39122, "name": "EUTELSAT 117 WEST A", "group": "eutelsat", "lat": 0.006965235874653246, "lon": -166.32523555663695, "alt_km": 35783.377095420845, "timestamp": "2025-12-18T14:52:07.701566+00:00", "meta": {"OBJECT_NAME": "EUTELSAT 117 WEST A", "OBJECT_ID": "2013-012A", "EPOCH": "2025-12-18T06:32:55.676832", "MEAN_MOTION": 1.00272874, "ECCENTRICITY": 0.00027185, "INCLINATION": 0.0277, "RA_OF_ASC_NODE": 45.3807, "ARG_OF_PERICENTER": 226.4287, "MEAN_ANOMALY": 156.7643, "EPHEMERIS_TYPE": 0, "CLASSIFICATION_TYPE": "U", "NORAD_CAT_ID": 39122, "ELEMENT_SET_NO": 999, "REV_AT_EPOCH": 4661, "BSTAR": 0, "MEAN_MOTION_DOT": 1.2e-07, "MEAN_MOTION_DDOT": 0}, "tle": {"line1": "1 39122U 13012A   25352.27286663  .00000012  00000+0  00000+0 0  9992", "line2": "2 39122   0.0277  45.3807 0002718 226.4287 156.7643  1.00272874 46611"}}, "geometry": {"type": "Point", "coordinates": [-166.32523555663695, 0.006965235874653246]}}, {"type": "Feature", "properties": {"norad_id": 39163, "name": "EUTELSAT 7B", "group": "eutelsat", "lat": -0.053222031926759894, "lon": -42.497273037486416, "alt_km": 35768.55732267668, "timestamp": "2025-12-18T14:52:07.701578+00:00", "meta": {"OBJECT_NAME": "EUTELSAT 7B", "OBJECT_ID": "2013-022A", "EPOCH": "2025-12-18T04:46:38.871264", "MEAN_MOTION": 1.00270241, "ECCENTRICITY": 0.00042712, "INCLINATION": 0.0654, "RA_OF_ASC_NODE": 354.4778, "ARG_OF_PERICENTER": 326.5912, "MEAN_ANOMALY": 204.666, "EPHEMERIS_TYPE": 0, "CLASSIFICATION_TYPE": "U", "NORAD_CAT_ID": 39163, "ELEMENT_SET_NO": 999, "REV_AT_EPOCH": 4613, "BSTAR": 0, "MEAN_MOTION_DOT": 7.3e-07, "MEAN_MOTION_DDOT": 0}, "tle": {"line1": "1 39163U 13022A   25352.19906101  .00000073  00000+0  00000+0 0  9992", "line2": "2 39163   0.0654 354.4778 0004271 326.5912 204.6660  1.00270241 46134"}}, "geometry": {"type": "Point", "coordinates": [-42.497273037486416, -0.053222031926759894]}}, {"type": "Feature", "properties": {"norad_id": 39612, "name": "EXPRESS-AT1", "group": "eutelsat", "lat": 0.021040737186392853, "lon": 6.491863954726535, "alt_km": 35787.531079380264, "timestamp": "2025-12-18T14:52:07.701590+00:00", "meta": {"OBJECT_NAME": "EXPRESS-AT1", "OBJECT_ID": "2014-010A", "EPOCH": "2025-12-18T01:34:40.154592", "MEAN_MOTION": 1.00270908, "ECCENTRICITY": 5.765e-05, "INCLINATION": 0.0136, "RA_OF_ASC_NODE": 293.7377, "ARG_OF_PERICENTER": 194.1591, "MEAN_ANOMALY": 38.7032, "EPHEMERIS_TYPE": 0, "CLASSIFICATION_TYPE": "U", "NORAD_CAT_ID": 39612, "ELEMENT_SET_NO": 999, "REV_AT_EPOCH": 4300, "BSTAR": 0, "MEAN_MOTION_DOT": 1.04e-06, "MEAN_MOTION_DDOT": 0}, "tle": {"line1": "1 39612U 14010A   25352.06574253  .00000104  00000+0  00000+0 0  9999", "line2": "2 39612   0.0136 293.7377 0000576 194.1591  38.7032  1.00270908 43006"}}, "geometry": {"type": "Point", "coordinates": [6.491863954726535, 0.021040737186392853]}}, {"type": "Feature", "properties": {"norad_id": 39613, "name": "EXPRESS-AT2", "group": "eutelsat", "lat": 0.022568113191360664, "lon": 90.35950102703896, "alt_km": 35790.109981755115, "timestamp": "2025-12-18T14:52:07.701602+00:00", "meta": {"OBJECT_NAME": "EXPRESS-AT2", "OBJECT_ID": "2014-010B", "EPOCH": "2025-12-18T08:16:56.366112", "MEAN_MOTION": 1.0027213, "ECCENTRICITY": 0.00010075, "INCLINATION": 0.014, "RA_OF_ASC_NODE": 294.2623, "ARG_OF_PERICENTER": 352.3688, "MEAN_ANOMALY": 64.6688, "EPHEMERIS_TYPE": 0, "CLASSIFICATION_TYPE": "U", "NORAD_CAT_ID": 39613, "ELEMENT_SET_NO": 999, "REV_AT_EPOCH": 4268, "BSTAR": 0, "MEAN_MOTION_DOT": -2.56e-06, "MEAN_MOTION_DDOT": 0}, "tle": {"line1": "1 39613U 14010B   25352.34509683 -.00000256  00000+0  00000+0 0  9995", "line2": "2 39613   0.0140 294.2623 0001007 352.3688  64.6688  1.00272130 42684"}}, "geometry": {"type": "Point", "coordinates": [90.35950102703896, 0.022568113191360664]}}, {"type": "Feature", "properties": {"norad_id": 39773, "name": "EUTELSAT 3B", "group": "eutelsat", "lat": -0.0605434968702692, "lon": -46.362590681814446, "alt_km": 35783.29822146852, "timestamp": "2025-12-18T14:52:07.701614+00:00", "meta": {"OBJECT_NAME": "EUTELSAT 3B", "OBJECT_ID": "2014-030A", "EPOCH": "2025-12-18T04:46:38.871264", "MEAN_MOTION": 1.00272142, "ECCENTRICITY": 0.00042197, "INCLINATION": 0.0605, "RA_OF_ASC_NODE": 1.2277, "ARG_OF_PERICENTER": 230.7075, "MEAN_ANOMALY": 289.8806, "EPHEMERIS_TYPE": 0, "CLASSIFICATION_TYPE": "U", "NORAD_CAT_ID": 39773, "ELEMENT_SET_NO": 999, "REV_AT_EPOCH": 4225, "BSTAR": 0, "MEAN_MOTION_DOT": 4.5e-07, "MEAN_MOTION_DDOT": 0}, "tle": {"line1": "1 39773U 14030A   25352.19906101  .00000045  00000+0  00000+0 0  9998", "line2": "2 39773   0.0605   1.2277 0004219 230.7075 289.8806  1.00272142 42254"}}, "geometry": {"type": "Point", "coordinates": [-46.362590681814446, -0.0605434968702692]}}, {"type": "Feature", "properties": {"norad_id": 40425, "name": "EUTELSAT 115 WEST B", "group": "eutelsat", "lat": 0.007389167912753621, "lon": -164.40099625266708, "alt_km": 35785.309258567075, "timestamp": "2025-12-18T14:52:07.701626+00:00", "meta": {"OBJECT_NAME": "EUTELSAT 115 WEST B", "OBJECT_ID": "2015-010B", "EPOCH": "2025-12-17T23:03:09.669312", "MEAN_MOTION": 1.0027235, "ECCENTRICITY": 3.218e-05, "INCLINATION": 0.0124, "RA_OF_ASC_NODE": 153.6594, "ARG_OF_PERICENTER": 106.0635, "MEAN_ANOMALY": 57.9981, "EPHEMERIS_TYPE": 0, "CLASSIFICATION_TYPE": "U", "NORAD_CAT_ID": 40425, "ELEMENT_SET_NO": 999, "REV_AT_EPOCH": 3957, "BSTAR": 0, "MEAN_MOTION_DOT": 0, "MEAN_MOTION_DDOT": 0}, "tle": {"line1": "1 40425U 15010B   25351.96052858  .00000000  00000+0  00000+0 0  9999", "line2": "2 40425   0.0124 153.6594 0000321 106.0635  57.9981  1.00272350 39577"}}, "geometry": {"type": "Point", "coordinates": [-164.40099625266708, 0.007389167912753621]}}, {"type": "Feature", "properties": {"norad_id": 40875, "name": "EUTELSAT 8 WEST B", "group": "eutelsat", "lat": -0.06804963172659859, "lon": -57.458778562444955, "alt_km": 35770.97984478767, "timestamp": "2025-12-18T14:52:07.701638+00:00", "meta": {"OBJECT_NAME": "EUTELSAT 8 WEST B", "OBJECT_ID": "2015-039B", "EPOCH": "2025-12-18T03:51:38.597760", "MEAN_MOTION": 1.00271882, "ECCENTRICITY": 0.00043066, "INCLINATION": 0.0637, "RA_OF_ASC_NODE": 352.5135, "ARG_OF_PERICENTER": 275.7769, "MEAN_ANOMALY": 228.6611, "EPHEMERIS_TYPE": 0, "CLASSIFICATION_TYPE": "U", "NORAD_CAT_ID": 40875, "ELEMENT_SET_NO": 999, "REV_AT_EPOCH": 3784, "BSTAR": 0, "MEAN_MOTION_DOT": -4e-07, "MEAN_MOTION_DDOT": 0}, "tle": {"line1": "1 40875U 15039B   25352.16086340 -.00000040  00000+0  00000+0 0  9990", "line2": "2 40875   0.0637 352.5135 0004306 275.7769 228.6611  1.00271882 37849"}}, "geometry": {"type": "Point", "coordinates": [-57.458778562444955, -0.06804963172659859]}}, {"type": "Feature", "properties": {"norad_id": 41310, "name": "EUTELSAT 9B", "group": "eutelsat", "lat": -0.06187483576997318, "lon": -40.47363485087752, "alt_km": 35772.74878040067, "timestamp": "2025-12-18T14:52:07.701650+00:00", "meta": {"OBJECT_NAME": "EUTELSAT 9B", "OBJECT_ID": "2016-005A", "EPOCH": "2025-12-18T04:46:38.871264", "MEAN_MOTION": 1.00272051, "ECCENTRICITY": 0.00044643, "INCLINATION": 0.0577, "RA_OF_ASC_NODE": 70.1501, "ARG_OF_PERICENTER": 203.8605, "MEAN_ANOMALY": 253.7054, "EPHEMERIS_TYPE": 0, "CLASSIFICATION_TYPE": "U", "NORAD_CAT_ID": 41310, "ELEMENT_SET_NO": 999, "REV_AT_EPOCH": 3630, "BSTAR": 0, "MEAN_MOTION_DOT": 8.7e-07, "MEAN_MOTION_DDOT": 0}, "tle": {"line1": "1 41310U 16005A   25352.19906101  .00000087  00000+0  00000+0 0  9998", "line2": "2 41310   0.0577  70.1501 0004464 203.8605 253.7054  1.00272051 36302"}}, "geometry": {"type": "Point", "coordinates": [-40.47363485087752, -0.06187483576997318]}}, {"type": "Feature", "properties": {"norad_id": 41382, "name": "EUTELSAT 65 WEST A", "group": "eutelsat", "lat": -0.08071109494215288, "lon": -114.73237150497998, "alt_km": 35778.31895376105, "timestamp": "2025-12-18T14:52:07.701661+00:00", "meta": {"OBJECT_NAME": "EUTELSAT 65 WEST A", "OBJECT_ID": "2016-014A", "EPOCH": "2025-12-18T02:42:41.599872", "MEAN_MOTION": 1.00269947, "ECCENTRICITY": 0.00023133, "INCLINATION": 0.0559, "RA_OF_ASC_NODE": 326.8482, "ARG_OF_PERICENTER": 310.1608, "MEAN_ANOMALY": 145.4298, "EPHEMERIS_TYPE": 0, "CLASSIFICATION_TYPE": "U", "NORAD_CAT_ID": 41382, "ELEMENT_SET_NO": 999, "REV_AT_EPOCH": 3572, "BSTAR": 0, "MEAN_MOTION_DOT": -2.51e-06, "MEAN_MOTION_DDOT": 0}, "tle": {"line1": "1 41382U 16014A   25352.11298148 -.00000251  00000+0  00000+0 0  9998", "line2": "2 41382   0.0559 326.8482 0002313 310.1608 145.4298  1.00269947 35728"}}, "geometry": {"type": "Point", "coordinates": [-114.73237150497998, -0.08071109494215288]}}, {"type": "Feature", "properties": {"norad_id": 41589, "name": "EUTELSAT 117 WEST B", "group": "eutelsat", "lat": 0.007510304977654848, "lon": -166.492315655556, "alt_km": 35784.81580882188, "timestamp": "2025-12-18T14:52:07.701673+00:00", "meta": {"OBJECT_NAME": "EUTELSAT 117 WEST B", "OBJECT_ID": "2016-038B", "EPOCH": "2025-12-17T21:19:49.567296", "MEAN_MOTION": 1.00271876, "ECCENTRICITY": 3.601e-05, "INCLINATION": 0.0113, "RA_OF_ASC_NODE": 157.4202, "ARG_OF_PERICENTER": 73.0441, "MEAN_ANOMALY": 59.2611, "EPHEMERIS_TYPE": 0, "CLASSIFICATION_TYPE": "U", "NORAD_CAT_ID": 41589, "ELEMENT_SET_NO": 999, "REV_AT_EPOCH": 3484, "BSTAR": 0, "MEAN_MOTION_DOT": 1.3e-07, "MEAN_MOTION_DDOT": 0}, "tle": {"line1": "1 41589U 16038B   25351.88876814  .00000013  00000+0  00000+0 0  9993", "line2": "2 41589   0.0113 157.4202 0000360  73.0441  59.2611  1.00271876 34848"}}, "geometry": {"type": "Point", "coordinates": [-166.492315655556, 0.007510304977654848]}}]}